OBJECT_NAME,OBJECT_ID,EPOCH,MEAN_MOTION,ECCENTRICITY,INCLINATION,RA_OF_ASC_NODE,ARG_OF_PERICENTER,MEAN_ANOMALY,EPHEMERIS_TYPE,CLASSIFICATION_TYPE,NORAD_CAT_ID,ELEMENT_SET_NO,REV_AT_EPOCH,BSTAR,MEAN_MOTION_DOT,MEAN_MOTION_DDOT
HAWK-6B,2023-011A,2026-07-17T03:34:24.521088,15.23164614,.0004399,40.4974,177.2796,250.4768,109.5566,0,U,55324,999,19241,.11185E-3,.2503E-4,0
HAWK-6C,2023-011C,2026-07-17T03:33:29.886048,15.23164678,.0004918,40.4965,174.1191,244.3355,115.6947,0,U,55326,999,19242,.1002E-3,.2222E-4,0
HAWK-6A,2023-011D,2026-07-17T03:33:33.149376,15.23164573,.0004532,40.4974,175.7457,241.3404,118.6950,0,U,55327,999,19242,.10492E-3,.2336E-4,0
HAWK-7A,2023-054P,2026-07-17T02:42:55.219968,15.27644350,.0001233,97.2658,84.6895,321.9127,38.2026,0,U,56191,999,18159,.11158E-3,.2943E-4,0
HAWK-7B,2023-054R,2026-07-16T17:16:52.868640,15.27640355,.0001152,97.2685,82.5808,13.1636,346.9634,0,U,56193,999,18153,.11392E-3,.3006E-4,0
HAWK-7C,2023-054Y,2026-07-17T02:42:38.517120,15.27645306,.0000733,97.2659,83.7235,345.5508,14.5710,0,U,56200,999,18159,.1107E-3,.2919E-4,0
