HAWK-6B                 
1 55324U 23011A   26198.14889492  .00002503  00000+0  11185-3 0  9995
2 55324  40.4974 177.2796 0004399 250.4768 109.5566 15.23164614192417
HAWK-6C                 
1 55326U 23011C   26198.14826257  .00002222  00000+0  10020-3 0  9992
2 55326  40.4965 174.1191 0004918 244.3355 115.6947 15.23164678192427
HAWK-6A                 
1 55327U 23011D   26198.14830034  .00002336  00000+0  10492-3 0  9990
2 55327  40.4974 175.7457 0004532 241.3404 118.6950 15.23164573192425
HAWK-7A                 
1 56191U 23054P   26198.11313912  .00002943  00000+0  11158-3 0  9999
2 56191  97.2658  84.6895 0001233 321.9127  38.2026 15.27644350181597
HAWK-7B                 
1 56193U 23054R   26197.72005635  .00003006  00000+0  11392-3 0  9998
2 56193  97.2685  82.5808 0001152  13.1636 346.9634 15.27640355181534
HAWK-7C                 
1 56200U 23054Y   26198.11294580  .00002919  00000+0  11070-3 0  9995
2 56200  97.2659  83.7235 0000733 345.5508  14.5710 15.27645306181595
